COMMENT,ORIGINATOR,NORAD_CAT_ID,OBJECT_NAME,OBJECT_TYPE,CLASSIFICATION_TYPE,INTLDES,EPOCH,EPOCH_MICROSECONDS,MEAN_MOTION,ECCENTRICITY,INCLINATION,RA_OF_ASC_NODE,ARG_OF_PERICENTER,MEAN_ANOMALY,EPHEMERIS_TYPE,ELEMENT_SET_NO,REV_AT_EPOCH,BSTAR,MEAN_MOTION_DOT,MEAN_MOTION_DDOT,FILE,TLE_LINE0,TLE_LINE1,TLE_LINE2,OBJECT_ID,OBJECT_NUMBER,SEMIMAJOR_AXIS,PERIOD,APOGEE,PERIGEE,DECAYED
GENERATED VIA SPACETRACK.ORG API,18 SPCS,50803,STARLINK-3321,PAYLOAD,U,22001A,2024-02-10 04:56:44,333952,15.0884522,0.0001865,53.2184,334.0872,105.2714,254.8485,0,999,11590,6.4431e-06,-1.86e-06,0.0,4184737,0 STARLINK-3321,1 50803U 22001A   24041.20606868 -.00000186  00000-0  64431-5 0  9997,2 50803  53.2184 334.0872 0001865 105.2714 254.8485 15.08845220115905,2022-001A,50803,6917.864,95.437,541.02,538.439,1
GENERATED VIA SPACETRACK.ORG API,18 SPCS,50803,STARLINK-3321,PAYLOAD,U,22001A,2024-02-10 22:25:59,208384,15.08842286,0.0001783,53.2203,330.814,110.5215,249.5969,0,999,11601,-3.9643e-05,-9.19e-06,0.0,4185013,0 STARLINK-3321,1 50803U 22001A   24041.93471306 -.00000919  00000-0 -39643-4 0  9995,2 50803  53.2203 330.8140 0001783 110.5215 249.5969 15.08842286116013,2022-001A,50803,6917.873,95.437,540.972,538.505,1
GENERATED VIA SPACETRACK.ORG API,18 SPCS,50803,STARLINK-3321,PAYLOAD,U,22001A,2024-02-11 04:47:31,274592,15.08847733,0.0001638,53.2192,329.623,91.651,268.467,0,999,11732,3.8768e-06,-2.26e-06,0.0,4185357,0 STARLINK-3321,1 50803U 22001A   24042.19966753 -.00000226  00000-0  38768-5 0  9997,2 50803  53.2192 329.6230 0001638  91.6510 268.4670 15.08847733117328,2022-001A,50803,6917.857,95.437,540.855,538.589,1
GENERATED VIA SPACETRACK.ORG API,18 SPCS,50803,STARLINK-3321,PAYLOAD,U,22001A,2024-02-11 04:47:31,274592,15.08847733,0.0001638,53.2192,329.623,91.651,268.467,0,999,11605,3.8768e-06,-2.26e-06,0.0,4185591,0 STARLINK-3321,1 50803U 22001A   24042.19966753 -.00000226  00000-0  38768-5 0  9997,2 50803  53.2192 329.6230 0001638  91.6510 268.4670 15.08847733116057,2022-001A,50803,6917.857,95.437,540.855,538.589,1
GENERATED VIA SPACETRACK.ORG API,18 SPCS,50803,STARLINK-3321,PAYLOAD,U,22001A,2024-02-11 22:16:45,393024,15.08851405,0.0001634,53.2194,326.3519,108.79,251.3269,0,999,11616,-6.4621e-06,-3.91e-06,0.0,4185871,0 STARLINK-3321,1 50803U 22001A   24042.92830316 -.00000391  00000-0 -64621-5 0  9994,2 50803  53.2194 326.3519 0001634 108.7900 251.3269 15.08851405116160,2022-001A,50803,6917.846,95.437,540.841,538.58,1
GENERATED VIA SPACETRACK.ORG API,18 SPCS,50803,STARLINK-3321,PAYLOAD,U,22001A,2024-02-12 04:38:17,197440,15.08857459,0.0001472,53.2187,325.1615,104.573,255.5425,0,999,11747,5.6624e-05,6.14e-06,0.0,4186243,0 STARLINK-3321,1 50803U 22001A   24043.19325460  .00000614  00000-0  56624-4 0  9992,2 50803  53.2187 325.1615 0001472 104.5730 255.5425 15.08857459117471,2022-001A,50803,6917.827,95.436,540.71,538.674,1
GENERATED VIA SPACETRACK.ORG API,18 SPCS,50803,STARLINK-3321,PAYLOAD,U,22001A,2024-02-12 04:38:17,197440,15.08857459,0.0001472,53.2187,325.1615,104.573,255.5425,0,999,11620,5.6624e-05,6.14e-06,0.0,4186491,0 STARLINK-3321,1 50803U 22001A   24043.19325460  .00000614  00000-0  56624-4 0  9992,2 50803  53.2187 325.1615 0001472 104.5730 255.5425 15.08857459116201,2022-001A,50803,6917.827,95.436,540.71,538.674,1
GENERATED VIA SPACETRACK.ORG API,18 SPCS,50803,STARLINK-3321,PAYLOAD,U,22001A,2024-02-12 22:07:32,990304,15.08840589,0.0001651,53.2178,321.8852,123.2451,236.8699,0,999,11631,-0.00010465,-1.953e-05,0.0,4186778,0 STARLINK-3321,1 50803U 22001A   24043.92190961 -.00001953  00000-0 -10465-3 0  9990,2 50803  53.2178 321.8852 0001651 123.2451 236.8699 15.08840589116317,2022-001A,50803,6917.879,95.438,540.886,538.601,1
GENERATED VIA SPACETRACK.ORG API,18 SPCS,50803,STARLINK-3321,PAYLOAD,U,22001A,2024-02-12 23:42:56,172960,15.08840482,0.0001598,53.2181,321.5872,123.13,236.9845,0,999,11759,-0.00010241,-1.918e-05,0.0,4186849,0 STARLINK-3321,1 50803U 22001A   24043.98815015 -.00001918  00000-0 -10241-3 0  9993,2 50803  53.2181 321.5872 0001598 123.1300 236.9845 15.08840482117599,2022-001A,50803,6917.879,95.438,540.849,538.638,1
GENERATED VIA SPACETRACK.ORG API,18 SPCS,50803,STARLINK-3321,PAYLOAD,U,22001A,2024-02-13 10:50:38,450688,15.08837204,0.0001361,53.2188,319.5131,87.1935,272.9213,0,999,11639,-6.5369e-05,-1.328e-05,0.0,4187441,0 STARLINK-3321,1 50803U 22001A   24044.45183392 -.00001328  00000-0 -65369-4 0  9999,2 50803  53.2188 319.5131 0001361  87.1935 272.9213 15.08837204116396,2022-001A,50803,6917.889,95.438,540.695,538.812,1
GENERATED VIA SPACETRACK.ORG API,18 SPCS,50803,STARLINK-3321,PAYLOAD,U,22001A,2024-02-13 21:58:19,492032,15.08853329,0.000141,53.2182,317.4326,110.0854,250.029,0,999,11646,-4.513e-05,-1.006e-05,0.0,4187767,0 STARLINK-3321,1 50803U 22001A   24044.91550338 -.00001006  00000-0 -45130-4 0  9995,2 50803  53.2182 317.4326 0001410 110.0854 250.0290 15.08853329116460,2022-001A,50803,6917.84,95.437,540.68,538.729,1
GENERATED VIA SPACETRACK.ORG API,18 SPCS,50803,STARLINK-3321,PAYLOAD,U,22001A,2024-02-14 01:09:05,618016,15.08855495,0.0001055,53.2172,316.8409,93.2759,266.8354,0,999,11775,-5.3768e-05,-1.144e-05,0.0,4187886,0 STARLINK-3321,1 50803U 22001A   24045.04798169 -.00001144  00000-0 -53768-4 0  9995,2 50803  53.2172 316.8409 0001055  93.2759 266.8354 15.08855495117750,2022-001A,50803,6917.833,95.437,540.428,538.968,1
GENERATED VIA SPACETRACK.ORG API,18 SPCS,50803,STARLINK-3321,PAYLOAD,U,22001A,2024-02-14 10:41:24,404640,15.08854027,0.0001196,53.2175,315.0578,87.2971,272.8158,0,999,11654,-8.657e-05,-1.666e-05,0.0,4188404,0 STARLINK-3321,1 50803U 22001A   24045.44542135 -.00001666  00000-0 -86570-4 0  9995,2 50803  53.2175 315.0578 0001196  87.2971 272.8158 15.08854027116541,2022-001A,50803,6917.838,95.437,540.53,538.875,1
GENERATED VIA SPACETRACK.ORG API,18 SPCS,50803,STARLINK-3321,PAYLOAD,U,22001A,2024-02-14 21:49:07,802976,15.08833938,0.0001863,53.2196,312.9785,89.6757,270.4449,0,999,11661,2.0371e-05,3.6e-07,0.0,4188727,0 STARLINK-3321,1 50803U 22001A   24045.90911809  .00000036  00000-0  20371-4 0  9999,2 50803  53.2196 312.9785 0001863  89.6757 270.4449 15.08833938116612,2022-001A,50803,6917.899,95.438,541.053,538.475,1
GENERATED VIA SPACETRACK.ORG API,18 SPCS,50803,STARLINK-3321,PAYLOAD,U,22001A,2024-02-14 23:24:31,50432,15.08831403,0.0001702,53.2207,312.6826,103.1188,256.9994,0,999,11789,7.4882e-06,-1.69e-06,0.0,4188855,0 STARLINK-3321,1 50803U 22001A   24045.97535938 -.00000169  00000-0  74882-5 0  9996,2 50803  53.2207 312.6826 0001702 103.1188 256.9994 15.08831403117890,2022-001A,50803,6917.907,95.438,540.949,538.594,1
GENERATED VIA SPACETRACK.ORG API,18 SPCS,50803,STARLINK-3321,PAYLOAD,U,22001A,2024-02-15 04:10:39,778464,15.08837865,0.0001195,53.2183,311.7829,86.1099,274.003,0,999,11792,7.6716e-05,9.33e-06,0.0,4189101,0 STARLINK-3321,1 50803U 22001A   24046.17407151  .00000933  00000-0  76716-4 0  9999,2 50803  53.2183 311.7829 0001195  86.1099 274.0030 15.08837865117927,2022-001A,50803,6917.887,95.438,540.579,538.925,1
GENERATED VIA SPACETRACK.ORG API,18 SPCS,50803,STARLINK-3321,PAYLOAD,U,22001A,2024-02-15 04:10:39,778464,15.08837865,0.0001195,53.2183,311.7829,86.1099,274.003,0,999,11665,7.6716e-05,9.33e-06,0.0,4189324,0 STARLINK-3321,1 50803U 22001A   24046.17407151  .00000933  00000-0  76716-4 0  9999,2 50803  53.2183 311.7829 0001195  86.1099 274.0030 15.08837865116656,2022-001A,50803,6917.887,95.438,540.579,538.925,1
GENERATED VIA SPACETRACK.ORG API,18 SPCS,50803,STARLINK-3321,PAYLOAD,U,22001A,2024-02-15 10:32:13,47360,15.08831408,0.0001356,53.2184,310.5934,72.3796,287.7345,0,999,11796,2.2845e-05,7.6e-07,0.0,4189439,0 STARLINK-3321,1 50803U 22001A   24046.43903990  .00000076  00000-0  22845-4 0  9992,2 50803  53.2184 310.5934 0001356  72.3796 287.7345 15.08831408117963,2022-001A,50803,6917.907,95.438,540.71,538.834,1
GENERATED VIA SPACETRACK.ORG API,18 SPCS,50803,STARLINK-3321,PAYLOAD,U,22001A,2024-02-15 21:39:55,719072,15.0882665,0.0001756,53.2191,308.5106,73.7522,286.3663,0,999,11676,-1.3386e-05,-5.01e-06,0.0,4189707,0 STARLINK-3321,1 50803U 22001A   24046.90272823 -.00000501  00000-0 -13386-4 0  9993,2 50803  53.2191 308.5106 0001756  73.7522 286.3663 15.08826650116763,2022-001A,50803,6917.921,95.438,541.001,538.571,1
GENERATED VIA SPACETRACK.ORG API,18 SPCS,50803,STARLINK-3321,PAYLOAD,U,22001A,2024-02-16 10:23:00,257568,15.08843692,0.0001396,53.2185,306.1348,78.3687,281.7461,0,999,11684,-0.00010137,-1.901e-05,0.0,4190317,0 STARLINK-3321,1 50803U 22001A   24047.43264187 -.00001901  00000-0 -10137-3 0  9991,2 50803  53.2185 306.1348 0001396  78.3687 281.7461 15.08843692116840,2022-001A,50803,6917.869,95.437,540.7,538.768,1
GENERATED VIA SPACETRACK.ORG API,18 SPCS,50803,STARLINK-3321,PAYLOAD,U,22001A,2024-02-16 10:23:00,257568,15.08843692,0.0001396,53.2185,306.1348,78.3687,281.7461,0,999,11811,-0.00010137,-1.901e-05,0.0,4190321,0 STARLINK-3321,1 50803U 22001A   24047.43264187 -.00001901  00000-0 -10137-3 0  9991,2 50803  53.2185 306.1348 0001396  78.3687 281.7461 15.08843692118112,2022-001A,50803,6917.869,95.437,540.7,538.768,1
GENERATED VIA SPACETRACK.ORG API,18 SPCS,50803,STARLINK-3321,PAYLOAD,U,22001A,2024-02-16 21:30:42,197472,15.08836018,0.0001552,53.2181,304.0533,74.6897,285.4266,0,999,11691,0.00010431,1.372e-05,0.0,4190592,0 STARLINK-3321,1 50803U 22001A   24047.89632173  .00001372  00000-0  10431-3 0  9992,2 50803  53.2181 304.0533 0001552  74.6897 285.4266 15.08836018116911,2022-001A,50803,6917.893,95.438,540.831,538.684,1
GENERATED VIA SPACETRACK.ORG API,18 SPCS,50803,STARLINK-3321,PAYLOAD,U,22001A,2024-02-17 02:16:50,919456,15.08848274,0.0001377,53.2181,303.1597,87.0314,273.0836,0,999,11821,0.00010091,1.319e-05,0.0,4190709,0 STARLINK-3321,1 50803U 22001A   24048.09503379  .00001319  00000-0  10091-3 0  9993,2 50803  53.2181 303.1597 0001377  87.0314 273.0836 15.08848274118216,2022-001A,50803,6917.855,95.437,540.673,538.768,1
